[{"OBJECT_NAME":"KUIPER-00098","OBJECT_ID":"2025-171F","EPOCH":"2026-03-09T22:36:41.125824","MEAN_MOTION":14.79916038,"ECCENTRICITY":0.0001212,"INCLINATION":51.8988,"RA_OF_ASC_NODE":161.9719,"ARG_OF_PERICENTER":176.5287,"MEAN_ANOMALY":183.5684,"EPHEMERIS_TYPE":0,"CLASSIFICATION_TYPE":"U","NORAD_CAT_ID":65137,"ELEMENT_SET_NO":999,"REV_AT_EPOCH":3220,"BSTAR":0.00080666104,"MEAN_MOTION_DOT":5.931e-5,"MEAN_MOTION_DDOT":0},{"OBJECT_NAME":"FENGYUN 1C DEB","OBJECT_ID":"1999-025BXW","EPOCH":"2026-03-07T08:59:43.247904","MEAN_MOTION":14.36304293,"ECCENTRICITY":0.0241698,"INCLINATION":98.3646,"RA_OF_ASC_NODE":113.8642,"ARG_OF_PERICENTER":16.0953,"MEAN_ANOMALY":344.7742,"EPHEMERIS_TYPE":0,"CLASSIFICATION_TYPE":"U","NORAD_CAT_ID":31531,"ELEMENT_SET_NO":999,"REV_AT_EPOCH":65149,"BSTAR":0.0010359083,"MEAN_MOTION_DOT":4.183e-5,"MEAN_MOTION_DDOT":0}]
